CCSDS_OMM_VERS = 2.0
CREATION_DATE  = 
ORIGINATOR     = 

OBJECT_NAME    = 2026-052A
OBJECT_ID      = 2026-052A
CENTER_NAME    = EARTH
REF_FRAME      = TEME
TIME_SYSTEM    = UTC
MEAN_ELEMENT_THEORY = SGP/SGP4

EPOCH          = 2026-04-01T12:29:45.298752
MEAN_MOTION    = 15.09986966
ECCENTRICITY   = .0013344
INCLINATION    = 97.5368
RA_OF_ASC_NODE = 167.5078
ARG_OF_PERICENTER = 204.4933
MEAN_ANOMALY   = 155.5663

EPHEMERIS_TYPE = 0
CLASSIFICATION_TYPE = U
NORAD_CAT_ID   = 68198
ELEMENT_SET_NO = 999
REV_AT_EPOCH   = 247
BSTAR          = .40315E-3
MEAN_MOTION_DOT = .6499E-4
MEAN_MOTION_DDOT = 0

CCSDS_OMM_VERS = 2.0
CREATION_DATE  = 
ORIGINATOR     = 

OBJECT_NAME    = 2026-052C
OBJECT_ID      = 2026-052C
CENTER_NAME    = EARTH
REF_FRAME      = TEME
TIME_SYSTEM    = UTC
MEAN_ELEMENT_THEORY = SGP/SGP4

EPOCH          = 2026-04-01T12:25:17.844960
MEAN_MOTION    = 15.10257613
ECCENTRICITY   = .0012094
INCLINATION    = 97.5363
RA_OF_ASC_NODE = 167.5128
ARG_OF_PERICENTER = 208.3980
MEAN_ANOMALY   = 151.6591

EPHEMERIS_TYPE = 0
CLASSIFICATION_TYPE = U
NORAD_CAT_ID   = 68200
ELEMENT_SET_NO = 999
REV_AT_EPOCH   = 246
BSTAR          = .24136E-3
MEAN_MOTION_DOT = .3891E-4
MEAN_MOTION_DDOT = 0

CCSDS_OMM_VERS = 2.0
CREATION_DATE  = 
ORIGINATOR     = 

OBJECT_NAME    = 2026-052D
OBJECT_ID      = 2026-052D
CENTER_NAME    = EARTH
REF_FRAME      = TEME
TIME_SYSTEM    = UTC
MEAN_ELEMENT_THEORY = SGP/SGP4

EPOCH          = 2026-04-01T12:22:29.702784
MEAN_MOTION    = 15.10485164
ECCENTRICITY   = .0011302
INCLINATION    = 97.5360
RA_OF_ASC_NODE = 167.5123
ARG_OF_PERICENTER = 204.8313
MEAN_ANOMALY   = 155.2374

EPHEMERIS_TYPE = 0
CLASSIFICATION_TYPE = U
NORAD_CAT_ID   = 68201
ELEMENT_SET_NO = 999
REV_AT_EPOCH   = 247
BSTAR          = .39645E-3
MEAN_MOTION_DOT = .6474E-4
MEAN_MOTION_DDOT = 0

CCSDS_OMM_VERS = 2.0
CREATION_DATE  = 
ORIGINATOR     = 

OBJECT_NAME    = 2026-052E
OBJECT_ID      = 2026-052E
CENTER_NAME    = EARTH
REF_FRAME      = TEME
TIME_SYSTEM    = UTC
MEAN_ELEMENT_THEORY = SGP/SGP4

EPOCH          = 2026-04-01T12:22:28.015392
MEAN_MOTION    = 15.10484025
ECCENTRICITY   = .0011122
INCLINATION    = 97.5362
RA_OF_ASC_NODE = 167.5145
ARG_OF_PERICENTER = 208.9704
MEAN_ANOMALY   = 151.0910

EPHEMERIS_TYPE = 0
CLASSIFICATION_TYPE = U
NORAD_CAT_ID   = 68202
ELEMENT_SET_NO = 999
REV_AT_EPOCH   = 247
BSTAR          = .36323E-3
MEAN_MOTION_DOT = .5926E-4
MEAN_MOTION_DDOT = 0

CCSDS_OMM_VERS = 2.0
CREATION_DATE  = 
ORIGINATOR     = 

OBJECT_NAME    = 2026-052F
OBJECT_ID      = 2026-052F
CENTER_NAME    = EARTH
REF_FRAME      = TEME
TIME_SYSTEM    = UTC
MEAN_ELEMENT_THEORY = SGP/SGP4

EPOCH          = 2026-04-01T12:18:32.069952
MEAN_MOTION    = 15.10740489
ECCENTRICITY   = .0010379
INCLINATION    = 97.5355
RA_OF_ASC_NODE = 167.5212
ARG_OF_PERICENTER = 201.4596
MEAN_ANOMALY   = 158.6200

EPHEMERIS_TYPE = 0
CLASSIFICATION_TYPE = U
NORAD_CAT_ID   = 68203
ELEMENT_SET_NO = 999
REV_AT_EPOCH   = 247
BSTAR          = .38667E-3
MEAN_MOTION_DOT = .6357E-4
MEAN_MOTION_DDOT = 0

CCSDS_OMM_VERS = 2.0
CREATION_DATE  = 
ORIGINATOR     = 

OBJECT_NAME    = 2026-052G
OBJECT_ID      = 2026-052G
CENTER_NAME    = EARTH
REF_FRAME      = TEME
TIME_SYSTEM    = UTC
MEAN_ELEMENT_THEORY = SGP/SGP4

EPOCH          = 2026-04-01T12:17:46.837824
MEAN_MOTION    = 15.10787023
ECCENTRICITY   = .0009996
INCLINATION    = 97.5368
RA_OF_ASC_NODE = 167.5168
ARG_OF_PERICENTER = 204.0052
MEAN_ANOMALY   = 156.0713

EPHEMERIS_TYPE = 0
CLASSIFICATION_TYPE = U
NORAD_CAT_ID   = 68204
ELEMENT_SET_NO = 999
REV_AT_EPOCH   = 247
BSTAR          = .38583E-3
MEAN_MOTION_DOT = .635E-4
MEAN_MOTION_DDOT = 0

CCSDS_OMM_VERS = 2.0
CREATION_DATE  = 
ORIGINATOR     = 

OBJECT_NAME    = KZ-11 R/B
OBJECT_ID      = 2026-052H
CENTER_NAME    = EARTH
REF_FRAME      = TEME
TIME_SYSTEM    = UTC
MEAN_ELEMENT_THEORY = SGP/SGP4

EPOCH          = 2026-04-01T12:26:36.146688
MEAN_MOTION    = 14.67454794
ECCENTRICITY   = .0544885
INCLINATION    = 97.3411
RA_OF_ASC_NODE = 166.4887
ARG_OF_PERICENTER = 319.9952
MEAN_ANOMALY   = 36.2278

EPHEMERIS_TYPE = 0
CLASSIFICATION_TYPE = U
NORAD_CAT_ID   = 68205
ELEMENT_SET_NO = 999
REV_AT_EPOCH   = 240
BSTAR          = .35791E-3
MEAN_MOTION_DOT = .23756E-3
MEAN_MOTION_DDOT = .19514E-5

CCSDS_OMM_VERS = 2.0
CREATION_DATE  = 
ORIGINATOR     = 

OBJECT_NAME    = 2026-052J
OBJECT_ID      = 2026-052J
CENTER_NAME    = EARTH
REF_FRAME      = TEME
TIME_SYSTEM    = UTC
MEAN_ELEMENT_THEORY = SGP/SGP4

EPOCH          = 2026-04-01T12:18:12.291264
MEAN_MOTION    = 14.68689066
ECCENTRICITY   = .0540385
INCLINATION    = 97.3410
RA_OF_ASC_NODE = 166.4956
ARG_OF_PERICENTER = 320.0206
MEAN_ANOMALY   = 36.2357

EPHEMERIS_TYPE = 0
CLASSIFICATION_TYPE = U
NORAD_CAT_ID   = 68206
ELEMENT_SET_NO = 999
REV_AT_EPOCH   = 240
BSTAR          = .10774E-2
MEAN_MOTION_DOT = .73759E-3
MEAN_MOTION_DDOT = .27118E-5

CCSDS_OMM_VERS = 2.0
CREATION_DATE  = 
ORIGINATOR     = 

OBJECT_NAME    = STARLINK-36986
OBJECT_ID      = 2026-053A
CENTER_NAME    = EARTH
REF_FRAME      = TEME
TIME_SYSTEM    = UTC
MEAN_ELEMENT_THEORY = SGP/SGP4

EPOCH          = 2026-04-01T11:00:31.327488
MEAN_MOTION    = 15.80874510
ECCENTRICITY   = .0001168
INCLINATION    = 97.2845
RA_OF_ASC_NODE = 326.8526
ARG_OF_PERICENTER = 93.4874
MEAN_ANOMALY   = 266.6528

EPHEMERIS_TYPE = 0
CLASSIFICATION_TYPE = U
NORAD_CAT_ID   = 68207
ELEMENT_SET_NO = 999
REV_AT_EPOCH   = 365
BSTAR          = .84621E-3
MEAN_MOTION_DOT = .1655E-2
MEAN_MOTION_DDOT = 0

CCSDS_OMM_VERS = 2.0
CREATION_DATE  = 
ORIGINATOR     = 

OBJECT_NAME    = STARLINK-37009
OBJECT_ID      = 2026-053B
CENTER_NAME    = EARTH
REF_FRAME      = TEME
TIME_SYSTEM    = UTC
MEAN_ELEMENT_THEORY = SGP/SGP4

EPOCH          = 2026-04-01T10:59:24.840960
MEAN_MOTION    = 15.80836668
ECCENTRICITY   = .0001156
INCLINATION    = 97.2847
RA_OF_ASC_NODE = 326.8527
ARG_OF_PERICENTER = 69.9930
MEAN_ANOMALY   = 290.1463

EPHEMERIS_TYPE = 0
CLASSIFICATION_TYPE = U
NORAD_CAT_ID   = 68208
ELEMENT_SET_NO = 999
REV_AT_EPOCH   = 365
BSTAR          = -.15925E-3
MEAN_MOTION_DOT = -.30568E-3
MEAN_MOTION_DDOT = 0

CCSDS_OMM_VERS = 2.0
CREATION_DATE  = 
ORIGINATOR     = 

OBJECT_NAME    = STARLINK-36948
OBJECT_ID      = 2026-053C
CENTER_NAME    = EARTH
REF_FRAME      = TEME
TIME_SYSTEM    = UTC
MEAN_ELEMENT_THEORY = SGP/SGP4

EPOCH          = 2026-04-01T10:58:21.641952
MEAN_MOTION    = 15.80870797
ECCENTRICITY   = .000157
INCLINATION    = 97.2846
RA_OF_ASC_NODE = 326.8543
ARG_OF_PERICENTER = 88.4664
MEAN_ANOMALY   = 271.6784

EPHEMERIS_TYPE = 0
CLASSIFICATION_TYPE = U
NORAD_CAT_ID   = 68209
ELEMENT_SET_NO = 999
REV_AT_EPOCH   = 363
BSTAR          = .84066E-3
MEAN_MOTION_DOT = .164365E-2
MEAN_MOTION_DDOT = 0

