2026-052A               
1 68198U 26052A   26091.52066318  .00006499  00000+0  40315-3 0  9999
2 68198  97.5368 167.5078 0013344 204.4933 155.5663 15.09986966  2479
2026-052C               
1 68200U 26052C   26091.51756765  .00003891  00000+0  24136-3 0  9990
2 68200  97.5363 167.5128 0012094 208.3980 151.6591 15.10257613  2468
2026-052D               
1 68201U 26052D   26091.51562156  .00006474  00000+0  39645-3 0  9991
2 68201  97.5360 167.5123 0011302 204.8313 155.2374 15.10485164  2477
2026-052E               
1 68202U 26052E   26091.51560203  .00005926  00000+0  36323-3 0  9994
2 68202  97.5362 167.5145 0011122 208.9704 151.0910 15.10484025  2478
2026-052F               
1 68203U 26052F   26091.51287118  .00006357  00000+0  38667-3 0  9998
2 68203  97.5355 167.5212 0010379 201.4596 158.6200 15.10740489  2470
2026-052G               
1 68204U 26052G   26091.51234766  .00006350  00000+0  38583-3 0  9990
2 68204  97.5368 167.5168 0009996 204.0052 156.0713 15.10787023  2470
KZ-11 R/B               
1 68205U 26052H   26091.51847392  .00023756  19514-5  35791-3 0  9999
2 68205  97.3411 166.4887 0544885 319.9952  36.2278 14.67454794  2405
2026-052J               
1 68206U 26052J   26091.51264226  .00073759  27118-5  10774-2 0  9999
2 68206  97.3410 166.4956 0540385 320.0206  36.2357 14.68689066  2409
STARLINK-36986          
1 68207U 26053A   26091.45869592  .00165500  00000+0  84621-3 0  9995
2 68207  97.2845 326.8526 0001168  93.4874 266.6528 15.80874510  3651
STARLINK-37009          
1 68208U 26053B   26091.45792640 -.00030568  00000+0 -15925-3 0  9993
2 68208  97.2847 326.8527 0001156  69.9930 290.1463 15.80836668  3655
STARLINK-36948          
1 68209U 26053C   26091.45719493  .00164365  00000+0  84066-3 0  9992
2 68209  97.2846 326.8543 0001570  88.4664 271.6784 15.80870797  3632
